{
  "type": "FeatureCollection",
  "features": [
    {
      "type": "Feature",
      "properties": {
        "norad_id": 50032,
        "name": "COSMOS 1408 DEB",
        "group": "cosmos-1408-debris",
        "lat": 82.3638620522251,
        "lon": 135.79698595197956,
        "alt_km": 427.2981777978275,
        "timestamp": "2025-12-12T09:49:09.001884+00:00",
        "meta_object_name": "COSMOS 1408 DEB",
        "meta_object_id": "1982-092RU",
        "meta_epoch": "2025-12-11T16:20:47.923872",
        "meta_mean_motion": 15.45676652,
        "meta_eccentricity": 0.00151449,
        "meta_inclination": 82.5641,
        "meta_ra_of_asc_node": 59.5936,
        "meta_arg_of_pericenter": 212.6008,
        "meta_mean_anomaly": 147.4307,
        "meta_ephemeris_type": 0,
        "meta_classification_type": "U",
        "meta_norad_cat_id": 50032,
        "meta_element_set_no": 999,
        "meta_rev_at_epoch": 22587,
        "meta_bstar": 0.00015797469,
        "meta_mean_motion_dot": 7.691e-05,
        "meta_mean_motion_ddot": 0,
        "tle_line1": "1 50032U 82092RU  25345.68111023  .00007691  00000+0  15797-3 0  9996",
        "tle_line2": "2 50032  82.5641  59.5936 0015144 212.6008 147.4307 15.45676652225876"
      },
      "geometry": {
        "type": "Point",
        "coordinates": [
          135.79698595197956,
          82.3638620522251
        ]
      }
    },
    {
      "type": "Feature",
      "properties": {
        "norad_id": 50058,
        "name": "COSMOS 1408 DEB",
        "group": "cosmos-1408-debris",
        "lat": -82.43343630427418,
        "lon": -32.72976809963782,
        "alt_km": 393.9126458220535,
        "timestamp": "2025-12-12T09:49:09.001905+00:00",
        "meta_object_name": "COSMOS 1408 DEB",
        "meta_object_id": "1982-092SW",
        "meta_epoch": "2025-12-11T06:34:19.152192",
        "meta_mean_motion": 15.63964775,
        "meta_eccentricity": 0.00160129,
        "meta_inclination": 82.6138,
        "meta_ra_of_asc_node": 70.8772,
        "meta_arg_of_pericenter": 102.2436,
        "meta_mean_anomaly": 258.0617,
        "meta_ephemeris_type": 0,
        "meta_classification_type": "U",
        "meta_norad_cat_id": 50058,
        "meta_element_set_no": 999,
        "meta_rev_at_epoch": 22781,
        "meta_bstar": 0.00053909325,
        "meta_mean_motion_dot": 0.00051314,
        "meta_mean_motion_ddot": 0,
        "tle_line1": "1 50058U 82092SW  25345.27383278  .00051314  00000+0  53909-3 0  9990",
        "tle_line2": "2 50058  82.6138  70.8772 0016012 102.2436 258.0617 15.63964775227819"
      },
      "geometry": {
        "type": "Point",
        "coordinates": [
          -32.72976809963782,
          -82.43343630427418
        ]
      }
    },
    {
      "type": "Feature",
      "properties": {
        "norad_id": 50404,
        "name": "COSMOS 1408 DEB",
        "group": "cosmos-1408-debris",
        "lat": 74.51967041317339,
        "lon": -114.9755957821438,
        "alt_km": 581.7614272875135,
        "timestamp": "2025-12-12T09:49:09.001919+00:00",
        "meta_object_name": "COSMOS 1408 DEB",
        "meta_object_id": "1982-092ADS",
        "meta_epoch": "2025-12-12T01:32:19.955040",
        "meta_mean_motion": 15.1364179,
        "meta_eccentricity": 0.0172045,
        "meta_inclination": 82.2033,
        "meta_ra_of_asc_node": 215.7253,
        "meta_arg_of_pericenter": 201.2162,
        "meta_mean_anomaly": 158.1879,
        "meta_ephemeris_type": 0,
        "meta_classification_type": "U",
        "meta_norad_cat_id": 50404,
        "meta_element_set_no": 999,
        "meta_rev_at_epoch": 21183,
        "meta_bstar": 0.0035622,
        "meta_mean_motion_dot": 0.00093542,
        "meta_mean_motion_ddot": 0,
        "tle_line1": "1 50404U 82092ADS 25346.06411985  .00093542  00000+0  35622-2 0  9990",
        "tle_line2": "2 50404  82.2033 215.7253 0172045 201.2162 158.1879 15.13641790211832"
      },
      "geometry": {
        "type": "Point",
        "coordinates": [
          -114.9755957821438,
          74.51967041317339
        ]
      }
    },
    {
      "type": "Feature",
      "properties": {
        "norad_id": 50621,
        "name": "COSMOS 1408 DEB",
        "group": "cosmos-1408-debris",
        "lat": -65.26472185048378,
        "lon": 58.068541354294844,
        "alt_km": 419.5581509086778,
        "timestamp": "2025-12-12T09:49:09.001931+00:00",
        "meta_object_name": "COSMOS 1408 DEB",
        "meta_object_id": "1982-092ALR",
        "meta_epoch": "2025-12-11T12:30:20.156832",
        "meta_mean_motion": 15.56564652,
        "meta_eccentricity": 0.0028861,
        "meta_inclination": 82.57,
        "meta_ra_of_asc_node": 75.4488,
        "meta_arg_of_pericenter": 157.0202,
        "meta_mean_anomaly": 203.2351,
        "meta_ephemeris_type": 0,
        "meta_classification_type": "U",
        "meta_norad_cat_id": 50621,
        "meta_element_set_no": 999,
        "meta_rev_at_epoch": 22231,
        "meta_bstar": 0.00065091593,
        "meta_mean_motion_dot": 0.00047317,
        "meta_mean_motion_ddot": 0,
        "tle_line1": "1 50621U 82092ALR 25345.52106663  .00047317  00000+0  65092-3 0  9999",
        "tle_line2": "2 50621  82.5700  75.4488 0028861 157.0202 203.2351 15.56564652222317"
      },
      "geometry": {
        "type": "Point",
        "coordinates": [
          58.068541354294844,
          -65.26472185048378
        ]
      }
    }
  ]
}